[{"OBJECT_NAME":"TK-2","OBJECT_ID":"2022-031A","EPOCH":"2026-03-09T22:51:17.143200","MEAN_MOTION":15.02943491,"ECCENTRICITY":0.00164117,"INCLINATION":97.8366,"RA_OF_ASC_NODE":263.9365,"ARG_OF_PERICENTER":100.3205,"MEAN_ANOMALY":259.9871,"EPHEMERIS_TYPE":0,"CLASSIFICATION_TYPE":"U","NORAD_CAT_ID":52150,"ELEMENT_SET_NO":999,"REV_AT_EPOCH":21555,"BSTAR":0.00040164474,"MEAN_MOTION_DOT":5.349e-5,"MEAN_MOTION_DDOT":0},{"OBJECT_NAME":"STARLINK-35794","OBJECT_ID":"2025-298L","EPOCH":"2026-03-09T22:40:21.040608","MEAN_MOTION":14.99140238,"ECCENTRICITY":0.000246,"INCLINATION":70.0018,"RA_OF_ASC_NODE":13.8954,"ARG_OF_PERICENTER":239.7803,"MEAN_ANOMALY":120.3113,"EPHEMERIS_TYPE":0,"CLASSIFICATION_TYPE":"U","NORAD_CAT_ID":67085,"ELEMENT_SET_NO":999,"REV_AT_EPOCH":1325,"BSTAR":0.00057556911,"MEAN_MOTION_DOT":6.926e-5,"MEAN_MOTION_DDOT":0}]
